[{"OBJECT_NAME":"STARLINK-35296","OBJECT_ID":"2025-218L","EPOCH":"2026-03-09T15:00:33.034176","MEAN_MOTION":15.05649542,"ECCENTRICITY":0.000221,"INCLINATION":97.6028,"RA_OF_ASC_NODE":292.9464,"ARG_OF_PERICENTER":80.139,"MEAN_ANOMALY":280.0086,"EPHEMERIS_TYPE":0,"CLASSIFICATION_TYPE":"U","NORAD_CAT_ID":65801,"ELEMENT_SET_NO":999,"REV_AT_EPOCH":2496,"BSTAR":0.0001944,"MEAN_MOTION_DOT":2.745e-5,"MEAN_MOTION_DDOT":0},{"OBJECT_NAME":"UNKNOWN","OBJECT_ID":"","EPOCH":"2026-03-09T02:53:57.432768","MEAN_MOTION":15.04852502,"ECCENTRICITY":0.0007482,"INCLINATION":86.6587,"RA_OF_ASC_NODE":118.2618,"ARG_OF_PERICENTER":183.1315,"MEAN_ANOMALY":176.9875,"EPHEMERIS_TYPE":0,"CLASSIFICATION_TYPE":"U","NORAD_CAT_ID":82402,"ELEMENT_SET_NO":999,"REV_AT_EPOCH":46745,"BSTAR":0.00051144,"MEAN_MOTION_DOT":7.26e-5,"MEAN_MOTION_DDOT":0}]
